HAWK-10A                
1 60540U 24149CA  26140.15289552  .00001359  00000+0  12498-3 0  9999
2 60540  97.6896 216.5469 0004322 145.6509 214.4993 14.96413105 95792
UMBRA-09                
1 60541U 24149CB  26139.97845762  .00015422  00000+0  78090-3 0  9995
2 60541  97.6967 226.7232 0001328 123.6517 236.4842 15.17091840 96443
QPS-SAR-8 (AMATERU-IV)  
1 60542U 24149CC  26140.18369039  .00003290  00000+0  24381-3 0  9993
2 60542  97.6646 219.5753 0003240 184.6410 175.4786 15.03803813 96063
ARCTIC WEATHER SATELLITE
1 60543U 24149CD  26140.14605794  .00000569  00000+0  64929-4 0  9990
2 60543  97.6808 211.4116 0002247 161.6034 198.5265 14.89803096 95121
CAPELLA-15 (ACADIA-5)   
1 60544U 24149CE  26140.16314115  .00000747  00000+0  78109-4 0  9990
2 60544  97.6777 213.7632 0004868 156.8040 203.3400 14.92491791 95674
HAWK-10B                
1 60545U 24149CF  26140.15274789  .00001400  00000+0  12856-3 0  9995
2 60545  97.6817 215.9301 0005637 169.6703 190.4635 14.96414232 95798
ICEYE-X39               
1 60546U 24149CG  26140.18922312  .00001306  00000+0  11058-3 0  9999
2 60546  97.6799 217.5951 0002799 172.7770 187.3494 14.99710818 95927
UMBRA-10                
1 60547U 24149CH  26140.17587484  .00011807  00000+0  59894-3 0  9993
2 60547  97.6974 226.9493 0002223 100.5007 259.6476 15.17093290 96486
ICEYE-X33               
1 60548U 24149CJ  26139.83516553  .00003199  00000+0  25583-3 0  9997
2 60548  97.7191 219.1466 0000204 298.0199  62.1004 15.00918147 95959
ICEYE-X40               
1 60549U 24149CK  26140.17888843  .00000905  00000+0  81869-4 0  9993
2 60549  97.6822 217.1265 0005187 151.6786 208.4719 14.97848190 95881
SATELIOT_1              
1 60550U 24149CL  26140.17220024  .00001546  00000+0  13599-3 0  9992
2 60550  97.6762 216.5384 0007209 153.3354 206.8240 14.97947690 95873
BRO-14                  
1 60551U 24149CM  26140.17260839  .00000600  00000+0  58417-4 0  9990
2 60551  97.6880 216.4537 0006617 177.1189 183.0071 14.96119990 95800
SATELIOT_3              
1 60552U 24149CN  26140.21456932  .00001455  00000+0  12841-3 0  9996
2 60552  97.6818 217.3450 0005714 163.6536 196.4871 14.97920957 95898
BRO-15                  
1 60553U 24149CP  26140.15438848  .00000965  00000+0  90940-4 0  9998
2 60553  97.6807 216.0638 0008380 170.3499 189.7885 14.96074159 95811
UM5-RIBAT               
1 60554U 24149CQ  26140.20645706  .00001811  00000+0  14692-3 0  9998
2 60554  97.6656 218.3841 0003580 106.1451 254.0167 15.00896354 95990
UM5-EOSAT               
1 60555U 24149CR  26140.18075955  .00002100  00000+0  16783-3 0  9994
2 60555  97.6658 219.2650 0007420 196.8584 163.2394 15.01303509 96014
LASARSAT                
1 62391U 24247Q   26140.18172240  .00023734  00000+0  50705-3 0  9996
2 62391  44.9759  59.3627 0005684 171.8355 188.2628 15.44470942 78983
CROCUBE                 
1 62394U 24247T   26140.14683536  .00026334  00000+0  53126-3 0  9999
2 62394  44.9733  57.3164 0005420 174.7904 185.3043 15.46099852 79004
TEVEL2-4                
1 63213U 25052D   26140.19932595  .00013886  00000+0  43054-3 0  9999
2 63213  97.3929  36.5629 0002542 156.5580 203.5779 15.33529791 65829
TEVEL2-5                
1 63214U 25052E   26139.69475723  .00012442  00000+0  38818-3 0  9997
2 63214  97.3932  36.0141 0002447 156.4351 203.7004 15.33357540 65742
TEVEL2-6                
1 63215U 25052F   26139.51061639  .00012484  00000+0  38998-3 0  9991
2 63215  97.3934  35.8146 0002522 158.6934 201.4413 15.33314552 65714
TEVEL2-1                
1 63217U 25052H   26139.46478593  .00012131  00000+0  38501-3 0  9997
2 63217  97.3909  35.4261 0001975 171.4829 188.6447 15.32818755 65692
TEVEL2-3                
1 63218U 25052J   26140.17846963  .00013459  00000+0  42589-3 0  9993
2 63218  97.3906  36.1575 0002075 169.4039 190.7247 15.32887643 65805
TEVEL2-2                
1 63219U 25052K   26140.18332733  .00013517  00000+0  42828-3 0  9991
2 63219  97.3907  36.1456 0002015 170.1150 190.0132 15.32845355 65802
TEVEL2-9                
1 63237U 25052AD  26140.19071267  .00012317  00000+0  41408-3 0  9994
2 63237  97.3963  35.5868 0004414 227.4221 132.6648 15.30953767 65746
TEVEL2-7                
1 63238U 25052AE  26139.24587484  .00009233  00000+0  31399-3 0  9993
2 63238  97.3973  34.5729 0004474 232.2001 127.8836 15.30658823 65592
TEVEL2-8                
1 63239U 25052AF  26140.16904264  .00011842  00000+0  40178-3 0  9990
2 63239  97.3972  35.4707 0004465 228.8951 131.1905 15.30664792 65736
HADES-ICM               
1 63492U 25052BN  26139.22363440  .02073343  39485-2  23686-2 0  9993
2 63492  97.3705  43.9782 0011715 191.1728 168.9297 16.09971905 66230
FORESAIL-1 PRIME        
1 66778U 25276DS  26139.66211814  .00003039  00000+0  15099-3 0  9997
2 66778  97.4205 213.4600 0002444 166.7371 193.3928 15.18409334 26072
