OBJECT_NAME,OBJECT_ID,EPOCH,MEAN_MOTION,ECCENTRICITY,INCLINATION,RA_OF_ASC_NODE,ARG_OF_PERICENTER,MEAN_ANOMALY,EPHEMERIS_TYPE,CLASSIFICATION_TYPE,NORAD_CAT_ID,ELEMENT_SET_NO,REV_AT_EPOCH,BSTAR,MEAN_MOTION_DOT,MEAN_MOTION_DDOT
HAWK-10A,2024-149CA,2026-05-20T03:40:10.172928,14.96413105,.0004322,97.6896,216.5469,145.6509,214.4993,0,U,60540,999,9579,.12498E-3,.1359E-4,0
UMBRA-09,2024-149CB,2026-05-19T23:28:58.738368,15.17091840,.0001328,97.6967,226.7232,123.6517,236.4842,0,U,60541,999,9644,.7809E-3,.15422E-3,0
QPS-SAR-8 (AMATERU-IV),2024-149CC,2026-05-20T04:24:30.849696,15.03803813,.000324,97.6646,219.5753,184.6410,175.4786,0,U,60542,999,9606,.24381E-3,.329E-4,0
ARCTIC WEATHER SATELLITE,2024-149CD,2026-05-20T03:30:19.406016,14.89803096,.0002247,97.6808,211.4116,161.6034,198.5265,0,U,60543,999,9512,.64929E-4,.569E-5,0
CAPELLA-15 (ACADIA-5),2024-149CE,2026-05-20T03:54:55.395360,14.92491791,.0004868,97.6777,213.7632,156.8040,203.3400,0,U,60544,999,9567,.78109E-4,.747E-5,0
HAWK-10B,2024-149CF,2026-05-20T03:39:57.417696,14.96414232,.0005637,97.6817,215.9301,169.6703,190.4635,0,U,60545,999,9579,.12856E-3,.14E-4,0
ICEYE-X39,2024-149CG,2026-05-20T04:32:28.877568,14.99710818,.0002799,97.6799,217.5951,172.7770,187.3494,0,U,60546,999,9592,.11058E-3,.1306E-4,0
UMBRA-10,2024-149CH,2026-05-20T04:13:15.586176,15.17093290,.0002223,97.6974,226.9493,100.5007,259.6476,0,U,60547,999,9648,.59894E-3,.11807E-3,0
ICEYE-X33,2024-149CJ,2026-05-19T20:02:38.301792,15.00918147,.00002042,97.7191,219.1466,298.0199,62.1004,0,U,60548,999,9595,.25583038E-3,.3199E-4,0
ICEYE-X40,2024-149CK,2026-05-20T04:17:35.960352,14.97848190,.0005187,97.6822,217.1265,151.6786,208.4719,0,U,60549,999,9588,.81869E-4,.905E-5,0
SATELIOT_1,2024-149CL,2026-05-20T04:07:58.100736,14.97947690,.0007209,97.6762,216.5384,153.3354,206.8240,0,U,60550,999,9587,.13599E-3,.1546E-4,0
BRO-14,2024-149CM,2026-05-20T04:08:33.364896,14.96119990,.0006617,97.6880,216.4537,177.1189,183.0071,0,U,60551,999,9580,.58417E-4,.6E-5,0
SATELIOT_3,2024-149CN,2026-05-20T05:08:58.789248,14.97920957,.0005714,97.6818,217.3450,163.6536,196.4871,0,U,60552,999,9589,.12841E-3,.1455E-4,0
BRO-15,2024-149CP,2026-05-20T03:42:19.164672,14.96074159,.000838,97.6807,216.0638,170.3499,189.7885,0,U,60553,999,9581,.9094E-4,.965E-5,0
UM5-RIBAT,2024-149CQ,2026-05-20T04:57:17.889984,15.00896354,.000358,97.6656,218.3841,106.1451,254.0167,0,U,60554,999,9599,.14692E-3,.1811E-4,0
UM5-EOSAT,2024-149CR,2026-05-20T04:20:17.625120,15.01303509,.000742,97.6658,219.2650,196.8584,163.2394,0,U,60555,999,9601,.16783E-3,.21E-4,0
LASARSAT,2024-247Q,2026-05-20T04:21:40.815360,15.44470942,.0005684,44.9759,59.3627,171.8355,188.2628,0,U,62391,999,7898,.50705E-3,.23734E-3,0
CROCUBE,2024-247T,2026-05-20T03:31:26.575104,15.46099852,.000542,44.9733,57.3164,174.7904,185.3043,0,U,62394,999,7900,.53126E-3,.26334E-3,0
TEVEL2-4,2025-052D,2026-05-20T04:47:01.762080,15.33529791,.0002542,97.3929,36.5629,156.5580,203.5779,0,U,63213,999,6582,.43054E-3,.13886E-3,0
TEVEL2-5,2025-052E,2026-05-19T16:40:27.024672,15.33357540,.00024479,97.3932,36.0141,156.4351,203.7004,0,U,63214,999,6574,.38818172E-3,.12442E-3,0
TEVEL2-6,2025-052F,2026-05-19T12:15:17.256096,15.33314552,.00025226,97.3934,35.8146,158.6934,201.4413,0,U,63215,999,6571,.38998264E-3,.12484E-3,0
TEVEL2-1,2025-052H,2026-05-19T11:09:17.504352,15.32818755,.00019752,97.3909,35.4261,171.4829,188.6447,0,U,63217,999,6569,.38500545E-3,.12131E-3,0
TEVEL2-3,2025-052J,2026-05-20T04:16:59.776032,15.32887643,.0002075,97.3906,36.1575,169.4039,190.7247,0,U,63218,999,6580,.42589E-3,.13459E-3,0
TEVEL2-2,2025-052K,2026-05-20T04:23:59.481312,15.32845355,.0002015,97.3907,36.1456,170.1150,190.0132,0,U,63219,999,6580,.42828E-3,.13517E-3,0
TEVEL2-9,2025-052AD,2026-05-20T04:34:37.574688,15.30953767,.0004414,97.3963,35.5868,227.4221,132.6648,0,U,63237,999,6574,.41408E-3,.12317E-3,0
TEVEL2-7,2025-052AE,2026-05-19T05:54:03.586176,15.30658823,.0004474,97.3973,34.5729,232.2001,127.8836,0,U,63238,999,6559,.31399E-3,.9233E-4,0
TEVEL2-8,2025-052AF,2026-05-20T04:03:25.284096,15.30664792,.0004465,97.3972,35.4707,228.8951,131.1905,0,U,63239,999,6573,.40178E-3,.11842E-3,0
HADES-ICM,2025-052BN,2026-05-19T05:22:02.012160,16.09971905,.0011715,97.3705,43.9782,191.1728,168.9297,0,U,63492,999,6623,.23686E-2,.2073343E-1,.39485E-2
FORESAIL-1 PRIME,2025-276DS,2026-05-19T15:53:27.007296,15.18409334,.00024446,97.4205,213.4600,166.7371,193.3928,0,U,66778,999,2607,.15098561E-3,.3039E-4,0
